GLOBALSTAR M001         
1 25162U 98008A   24176.84983374 -.00000019  00000+0  59390-3 0  9996
2 25162  52.0046 293.2650 0001772 192.8284 319.1175 12.38186951199553
GLOBALSTAR M004         
1 25163U 98008B   24177.12346663 -.00000085  00000+0  10619-3 0  9997
2 25163  52.0009  63.4417 0002334 209.7652 267.0904 12.63362949216656
GLOBALSTAR M002         
1 25164U 98008C   24176.85397097 -.00000071  00000+0  11539-3 0  9991
2 25164  52.0032  56.1520 0000697 186.9180 173.1631 11.61502569142540
GLOBALSTAR M003         
1 25165U 98008D   24176.96243045  .00000068  00000+0  16831-2 0  9991
2 25165  51.9896  77.8908 0007575 297.7367 146.4549 12.12013518189907
GLOBALSTAR M006         
1 25307U 98023B   24176.92109681 -.00000140  00000+0 -13257-2 0  9991
2 25307  51.9962  25.8400 0003731 169.0135 298.8055 11.58163680175435
GLOBALSTAR M008         
1 25309U 98023D   24177.22867993 -.00000105  00000+0 -71651-4 0  9999
2 25309  51.9944 152.9467 0002352 140.0785 325.1395 12.36044613194017
